STARLINK-2737           
1 48675U 21044AP  24136.60584210  .00011427  00000+0  78397-3 0  9994
2 48675  53.0527 208.3125 0001260  93.3395 266.7739 15.06438994164747
STARLINK-2746           
1 48676U 21044AQ  24136.93390995  .00005590  00000+0  39357-3 0  9993
2 48676  53.0538 206.8369 0001654 104.9633 255.1540 15.06426727164859
STARLINK-2719           
1 48677U 21044AR  24136.92927587  .00001045  00000+0  88957-4 0  9998
2 48677  53.0537 206.8507 0001475  98.4844 261.6312 15.06426572164795
STARLINK-2615           
1 48678U 21044AS  24136.92653809  .00005013  00000+0  35505-3 0  9991
2 48678  53.0517 206.8733 0001760  94.2244 265.8946 15.06416330164790
STARLINK-2648           
1 48679U 21044AT  24136.92285705  .00008926  00000+0  61701-3 0  9991
2 48679  53.0529 206.8903 0001058  94.2571 265.8539 15.06422034164792
STARLINK-2649           
1 48680U 21044AU  24136.91916583  .00003873  00000+0  27862-3 0  9993
2 48680  53.0553 206.9070 0001626 112.3597 247.7564 15.06416356164852
STARLINK-2725           
1 48681U 21044AV  24136.85192189  .00007788  00000+0  54079-3 0  9994
2 48681  53.0523 177.4489 0001384 119.3705 240.7422 15.06426792164351
STARLINK-2743           
1 48682U 21044AW  24136.51740535  .00005378  00000+0  37935-3 0  9997
2 48682  53.0532 168.8767 0001568  73.8312 286.2850 15.06428672165289
STARLINK-2756           
1 48683U 21044AX  24136.47316292  .00005663  00000+0  39848-3 0  9994
2 48683  53.0535 168.9224 0001293 108.0007 252.1123 15.06424221164447
STARLINK-2741           
1 48684U 21044AY  24136.56212850  .00005926  00000+0  41606-3 0  9997
2 48684  53.0537 183.8687 0001825  51.9607 308.1546 15.06428117164249
STARLINK-2751           
1 48685U 21044AZ  24137.23985291  .00000412  00000+0  46581-4 0  9992
2 48685  53.0528 165.5178 0001670 135.9412 224.1710 15.06408592165401
STARLINK-2629           
1 48686U 21044BA  24136.50405874  .00006656  00000+0  46496-3 0  9996
2 48686  53.0523 174.0501 0001334  92.6890 267.4251 15.06430078164377
STARLINK-2627           
1 48687U 21044BB  24137.20896215 -.00003872  00000+0 -24124-3 0  9991
2 48687  53.0538 160.6061 0001321  89.2367 270.8773 15.06396924165462
STARLINK-2742           
1 48688U 21044BC  24137.21264888 -.00001655  00000+0 -92202-4 0  9998
2 48688  53.0539 160.5906 0001416  75.5141 284.6005 15.06409874165464
STARLINK-2617           
1 48689U 21044BD  24136.35522312  .00011481  00000+0  78760-3 0  9990
2 48689  53.0528 169.4110 0001443  78.7903 281.3248 15.06438205164427
STARLINK-2740           
1 48690U 21044BE  24137.09147909  .00001656  00000+0  13000-3 0  9998
2 48690  53.0529 176.1355 0001383  98.5874 261.5272 15.06414065165297
STARLINK-2750           
1 48691U 21044BF  24136.40082852  .00007433  00000+0  51705-3 0  9991
2 48691  53.0533 174.2340 0001478  69.9789 290.1359 15.06424249164364
STARLINK-2752           
1 48692U 21044BG  24136.38609300  .00011417  00000+0  78334-3 0  9996
2 48692  53.0529 174.4273 0001512  89.3070 270.8092 15.06437238164366
STARLINK-2618           
1 48693U 21044BH  24136.39389550  .00008088  00000+0  56083-3 0  9997
2 48693  53.0533 179.2664 0001540  76.8125 283.3036 15.06427559164296
STARLINK-2748           
1 48694U 21044BJ  24136.42844793  .00011529  00000+0  79085-3 0  9998
2 48694  53.0530 184.0992 0001076  83.8978 276.2133 15.06434793164220
STARLINK-2616           
1 48695U 21044BK  24136.84960775 -.00000431  00000+0 -10025-4 0  9996
2 48695  53.0543 182.2675 0001236 105.5405 254.5720 15.06412794164293
STARLINK-2753           
1 48696U 21044BL  24136.44185118  .00009849  00000+0  67878-3 0  9990
2 48696  53.0535 189.0978 0001408  86.8042 273.3108 15.06421606164162
ONEWEB-0211             
1 48767U 21045A   24136.77243518 -.00000883  00000+0 -23793-2 0  9993
2 48767  87.9059  50.8981 0001972  77.6827 282.4524 13.15540364144175
ONEWEB-0223             
1 48768U 21045B   24136.79459142 -.00000405  00000+0 -11094-2 0  9999
2 48768  87.9056  50.8996 0002215  99.0202 261.1179 13.15548007144166
ONEWEB-0230             
1 48769U 21045C   24136.84212950  .00000156  00000+0  37997-3 0  9992
2 48769  87.9057  50.9617 0001785  81.2118 278.9215 13.15548114144435
ONEWEB-0237             
1 48770U 21045D   24136.83104035  .00000116  00000+0  27405-3 0  9996
2 48770  87.9062  50.8931 0002053  92.0607 268.0758 13.15548936144156
ONEWEB-0235             
1 48771U 21045E   24136.80568103 -.00000362  00000+0 -99571-3 0  9992
2 48771  87.9054  50.9106 0002088 102.2230 257.9134 13.15548009144142
ONEWEB-0242             
1 48772U 21045F   24136.79934538 -.00000352  00000+0 -96924-3 0  9998
2 48772  87.9052  50.9003 0001849  86.0989 274.0353 13.15548061144186
ONEWEB-0241             
1 48773U 21045G   24136.78667863 -.00000119  00000+0 -34903-3 0  9992
2 48773  87.9066  50.9464 0002303  87.0510 273.0884 13.15548604144091
ONEWEB-0243             
1 48774U 21045H   24136.81836019 -.00000111  00000+0 -32947-3 0  9996
2 48774  87.9063  50.8994 0002093  93.4440 266.6929 13.15547049144129
ONEWEB-0222             
1 48775U 21045J   24136.80172916 -.00000016  00000+0 -77398-4 0  9999
2 48775  87.9052  50.9098 0002162  86.6832 273.4546 13.15548601144160
ONEWEB-0244             
1 48776U 21045K   24136.82786803  .00000257  00000+0  64989-3 0  9994
2 48776  87.9050  50.8879 0001765  85.3987 274.7345 13.15548725144731
ONEWEB-0247             
1 48777U 21045L   24136.82470621  .00000196  00000+0  48535-3 0  9994
2 48777  87.9059  50.9269 0002113 111.8495 248.2860 13.15547314144171
ONEWEB-0245             
1 48778U 21045M   24136.81995238  .00000159  00000+0  38762-3 0  9990
2 48778  87.9051  50.9192 0002158  80.7376 279.3998 13.15547420144142
ONEWEB-0229             
1 48779U 21045N   24136.81518118 -.00000040  00000+0 -14082-3 0  9999
2 48779  87.9052  50.9135 0001849  85.7003 274.4339 13.15546585144178
ONEWEB-0228             
1 48780U 21045P   24136.83025180  .00000199  00000+0  49555-3 0  9991
2 48780  87.9051  50.8865 0001856  82.9300 277.2041 13.15547345144092
ONEWEB-0232             
1 48781U 21045Q   24136.82314253  .00000162  00000+0  39669-3 0  9998
2 48781  87.9046  50.9111 0001879  84.5434 275.5910 13.15550420144413
ONEWEB-0231             
1 48782U 21045R   24136.80092914 -.00000089  00000+0 -27173-3 0  9991
2 48782  87.9063  50.9400 0002003  88.7460 271.3899 13.15546311144109
ONEWEB-0234             
1 48783U 21045S   24137.20101512  .00000271  00000+0  68453-3 0  9999
2 48783  87.9067  50.8161 0003460  39.5526 320.5856 13.15570565145426
ONEWEB-0238             
1 48784U 21045T   24136.77478713  .00000043  00000+0  81205-4 0  9999
2 48784  87.9055  50.9252 0001988  75.2023 284.9327 13.15547640144139
ONEWEB-0240             
1 48785U 21045U   24136.78430481 -.00000040  00000+0 -13981-3 0  9995
2 48785  87.9055  50.8904 0002286  87.2960 272.8432 13.15548446144169
ONEWEB-0246             
1 48786U 21045V   24136.77874817  .00000154  00000+0  37609-3 0  9997
2 48786  87.9058  50.8961 0002038  83.0199 277.1163 13.15546941144032
ONEWEB-0210             
1 48787U 21045W   24136.82946388  .00000205  00000+0  51156-3 0  9997
2 48787  87.9054  50.8912 0001756 107.6887 252.4435 13.15553127144085
ONEWEB-0214             
1 48788U 21045X   24136.76290262  .00000220  00000+0  55062-3 0  9991
2 48788  87.9050  50.8935 0001578  97.5274 262.6036 13.15548422144044
ONEWEB-0221             
1 48789U 21045Y   24136.76924560  .00000042  00000+0  78405-4 0  9996
2 48789  87.9057  50.9091 0002071  87.2084 272.9283 13.15548416144131
ONEWEB-0213             
1 48790U 21045Z   24136.83420923  .00000187  00000+0  46163-3 0  9995
2 48790  87.9055  50.9105 0002074  90.9127 269.2241 13.15548187144205
ONEWEB-0212             
1 48791U 21045AA  24136.81124754  .00000067  00000+0  14304-3 0  9996
2 48791  87.9057  50.8970 0001957  77.3142 282.8207 13.15552027144191
ONEWEB-0227             
1 48792U 21045AB  24136.81044455  .00000107  00000+0  24899-3 0  9991
2 48792  87.9055  50.9131 0002029  83.6198 276.5164 13.15548446144149
ONEWEB-0226             
1 48793U 21045AC  24136.80410599  .00000092  00000+0  21013-3 0  9995
2 48793  87.9056  50.9211 0001932  97.5468 262.5881 13.15548600144116
ONEWEB-0224             
1 48794U 21045AD  24136.76767720  .00000123  00000+0  29216-3 0  9990
2 48794  87.9059  50.9483 0003079  82.4553 277.6927 13.15550677144039
ONEWEB-0233             
1 48795U 21045AE  24136.76369743  .00000135  00000+0  32412-3 0  9999
2 48795  87.9057  50.9603 0001786  84.4773 275.6561 13.15547544144054
ONEWEB-0190             
1 48796U 21045AF  24136.83579375  .00000083  00000+0  18737-3 0  9998
2 48796  87.9059  50.9091 0002312 105.6733 254.4653 13.15547572144133
ONEWEB-0236             
1 48797U 21045AG  24136.77716332 -.00000316  00000+0 -87477-3 0  9996
2 48797  87.9065  50.9135 0002055  81.1783 278.9580 13.15548228144013
ONEWEB-0248             
1 48798U 21045AH  24136.78983998 -.00000400  00000+0 -10975-2 0  9994
2 48798  87.9051  50.9043 0002627  90.6190 269.5241 13.15548030144177
ONEWEB-0225             
1 48799U 21045AJ  24136.81202046 -.00000251  00000+0 -70138-3 0  9999
2 48799  87.9057  50.9104 0002153  92.0547 268.0830 13.15548030144187
ONEWEB-0215             
1 48800U 21045AK  24136.78192587 -.00000022  00000+0 -91371-4 0  9995
2 48800  87.9052  50.8920 0002575  97.9102 262.2321 13.15552527144052
ONEWEB-0216             
1 48801U 21045AL  24136.79143116 -.00000040  00000+0 -13974-3 0  9993
2 48801  87.9054  50.9308 0001675  87.2473 272.8849 13.15548253144063
ONEWEB-0239             
1 48802U 21045AM  24136.79617693 -.00000326  00000+0 -89891-3 0  9998
2 48802  87.9062  50.9026 0002825  93.0531 267.0923 13.15547770144105
FENGYUN 4B              
1 48808U 21047A   24136.99389604 -.00000328  00000+0  00000+0 0  9998
2 48808   0.1023 294.1622 0005095 190.8875 211.4796  1.00273907 10919
